{
  "norad_id": 62762,
  "name": "STARLINK-33577",
  "history": [
    {
      "epoch": "2026-03-28T16:26:58.982496Z",
      "apogee_km": 475.9563905978457,
      "perigee_km": 474.5236236007413,
      "latitude_deg": -5.508631275577572e-06,
      "longitude_deg": 161.07693376618016,
      "height_km": 475.9265315453625,
      "semi_major_axis_km": 6853.377007099293,
      "eccentricity": 0.00010453,
      "inclination_deg": 53.158,
      "raan_deg": 233.925,
      "arg_perigee_deg": 72.8114,
      "mean_anomaly_deg": 287.3001,
      "mean_motion_rev_day": 15.30191648
    },
    {
      "epoch": "2026-03-29T22:13:59.449728Z",
      "apogee_km": 475.9657915577118,
      "perigee_km": 474.3867881757269,
      "latitude_deg": -1.6028686673781987e-05,
      "longitude_deg": 67.33571610896371,
      "height_km": 475.8708399437139,
      "semi_major_axis_km": 6853.313289866719,
      "eccentricity": 0.0001152,
      "inclination_deg": 53.1586,
      "raan_deg": 228.1589,
      "arg_perigee_deg": 75.0555,
      "mean_anomaly_deg": 285.0573,
      "mean_motion_rev_day": 15.30212988
    },
    {
      "epoch": "2026-03-29T22:13:59.450592Z",
      "apogee_km": 475.9654488920478,
      "perigee_km": 474.3871308413918,
      "latitude_deg": -1.1572779163961528e-05,
      "longitude_deg": 67.33571581911382,
      "height_km": 475.8709283098869,
      "semi_major_axis_km": 6853.313289866719,
      "eccentricity": 0.00011515,
      "inclination_deg": 53.1586,
      "raan_deg": 228.1589,
      "arg_perigee_deg": 75.0555,
      "mean_anomaly_deg": 285.0573,
      "mean_motion_rev_day": 15.30212988
    },
    {
      "epoch": "2026-03-30T13:54:31.723776Z",
      "apogee_km": 475.9133892290656,
      "perigee_km": 474.5296961392987,
      "latitude_deg": -2.171797793802196e-05,
      "longitude_deg": -171.47643794001183,
      "height_km": 475.9613820505474,
      "semi_major_axis_km": 6853.358542684182,
      "eccentricity": 0.00010095,
      "inclination_deg": 53.1592,
      "raan_deg": 225.125,
      "arg_perigee_deg": 76.7524,
      "mean_anomaly_deg": 283.3589,
      "mean_motion_rev_day": 15.30197832
    }
  ]
}